{
    "links": {
        "self": "http://www.neowsapp.com/rest/v1/neo/3765943?api_key=iIulBulltgU6a56xZRHN4H3l9WmuAYTsLGpBGhQ2"
    },
    "id": "3765943",
    "neo_reference_id": "3765943",
    "name": "(2016 XB21)",
    "designation": "2016 XB21",
    "nasa_jpl_url": "http://ssd.jpl.nasa.gov/sbdb.cgi?sstr=3765943",
    "absolute_magnitude_h": 22.6,
    "estimated_diameter": {
        "kilometers": {
            "estimated_diameter_min": 0.0802703167,
            "estimated_diameter_max": 0.1794898848
        },
        "meters": {
            "estimated_diameter_min": 80.2703167283,
            "estimated_diameter_max": 179.4898847799
        },
        "miles": {
            "estimated_diameter_min": 0.049877647,
            "estimated_diameter_max": 0.1115298092
        },
        "feet": {
            "estimated_diameter_min": 263.3540659348,
            "estimated_diameter_max": 588.8775935812
        }
    },
    "is_potentially_hazardous_asteroid": false,
    "close_approach_data": [
        {
            "close_approach_date": "2013-12-01",
            "close_approach_date_full": "2013-Dec-01 22:38",
            "epoch_date_close_approach": 1385937480000,
            "relative_velocity": {
                "kilometers_per_second": "9.619730324",
                "kilometers_per_hour": "34631.0291662823",
                "miles_per_hour": "21518.3747616825"
            },
            "miss_distance": {
                "astronomical": "0.3521819731",
                "lunar": "136.9987875359",
                "kilometers": "52685673.028157297",
                "miles": "32737359.1681808186"
            },
            "orbiting_body": "Earth"
        },
        {
            "close_approach_date": "2016-11-29",
            "close_approach_date_full": "2016-Nov-29 16:19",
            "epoch_date_close_approach": 1480436340000,
            "relative_velocity": {
                "kilometers_per_second": "8.0715015105",
                "kilometers_per_hour": "29057.4054378789",
                "miles_per_hour": "18055.1417288865"
            },
            "miss_distance": {
                "astronomical": "0.1830860716",
                "lunar": "71.2204818524",
                "kilometers": "27389286.338027492",
                "miles": "17018913.3529517096"
            },
            "orbiting_body": "Earth"
        },
        {
            "close_approach_date": "2019-11-25",
            "close_approach_date_full": "2019-Nov-25 14:57",
            "epoch_date_close_approach": 1574693820000,
            "relative_velocity": {
                "kilometers_per_second": "13.2128088858",
                "kilometers_per_hour": "47566.1119889779",
                "miles_per_hour": "29555.7321967069"
            },
            "miss_distance": {
                "astronomical": "0.4888979564",
                "lunar": "190.1813050396",
                "kilometers": "73138092.924792868",
                "miles": "45445903.5889148584"
            },
            "orbiting_body": "Earth"
        }
    ],
    "orbital_data": {
        "orbit_id": "6",
        "orbit_determination_date": "2017-04-06 08:21:31",
        "first_observation_date": "2016-12-09",
        "last_observation_date": "2016-12-27",
        "data_arc_in_days": 18,
        "observations_used": 36,
        "orbit_uncertainty": "8",
        "minimum_orbit_intersection": ".165692",
        "jupiter_tisserand_invariant": "3.634",
        "epoch_osculation": "2457736.5",
        "eccentricity": ".4396380971211101",
        "semi_major_axis": "2.052921051543264",
        "inclination": "12.90781582580714",
        "ascending_node_longitude": "65.76484092186314",
        "orbital_period": "1074.377239107157",
        "perihelion_distance": "1.150378746902915",
        "perihelion_argument": "7.090746336922353",
        "aphelion_distance": "2.955463356183613",
        "perihelion_time": "2457723.124430051774",
        "mean_anomaly": "4.481857029438705",
        "mean_motion": ".335077835695004",
        "equinox": "J2000",
        "orbit_class": {
            "orbit_class_type": "AMO",
            "orbit_class_description": "Near-Earth asteroid orbits similar to that of 1221 Amor",
            "orbit_class_range": "1.017 AU < q (perihelion) < 1.3 AU"
        }
    },
    "is_sentry_object": false
}